APRIZESAT 2             
1 28366U 04025A   26166.40605366  .00000123  00000+0  51821-4 0  9993
2 28366  98.1012 332.4873 0104306 255.2901 103.6708 14.38035125151381
SAUDICOMSAT 1           
1 28369U 04025D   26166.50383053  .00000325  00000+0  85598-4 0  9995
2 28369  98.5772 176.5899 0032759  30.7044 329.6061 14.55472608163882
SAUDICOMSAT 2           
1 28370U 04025E   26166.53796196  .00000210  00000+0  66057-4 0  9998
2 28370  98.6641 178.7375 0054150 264.5949  94.9065 14.49980431159863
APRIZESAT 1             
1 28372U 04025G   26166.02029139  .00000192  00000+0  59318-4 0  9991
2 28372  98.6303 176.6869 0044975 160.3540 199.9400 14.51775986161591
NANOSAT-1               
1 28493U 04049B   26166.34386314  .00000854  00000+0  11974-3 0  9997
2 28493  98.2273 302.9598 0002903 310.9097  49.1862 14.80156242155170
SAUDICOMSAT 7           
1 31119U 07012C   26166.47480282  .00000352  00000+0  72303-4 0  9999
2 31119  98.3778 140.5714 0055167 200.6075 159.2904 14.66108741 22186
SAUDICOMSAT 6           
1 31121U 07012E   26166.44836013  .00000495  00000+0  10442-3 0  9999
2 31121  98.4098 133.9324 0071171 333.2388  26.5147 14.62556385 19932
SAUDICOMSAT 5           
1 31124U 07012H   26166.45064220  .00000510  00000+0  96337-4 0  9992
2 31124  98.3489 141.2943 0048376 130.0475 230.4988 14.68154351 23340
SAUDICOMSAT 3           
1 31125U 07012J   26166.41423156  .00000713  00000+0  12439-3 0  9991
2 31125  98.3143 141.8056 0040318  58.6793 301.8350 14.70702987 24563
SAUDICOMSAT 4           
1 31127U 07012L   26166.51490322  .00000385  00000+0  80643-4 0  9991
2 31127  98.3983 139.0513 0062053 263.5608  95.8526 14.64510819 21045
APRIZESAT 4             
1 35684U 09041D   26166.43639101  .00000551  00000+0  72440-4 0  9999
2 35684  98.1413 241.7220 0042508 328.8513  31.0181 14.83877188911102
APRIZESAT 3             
1 35686U 09041F   26166.36022073  .00001450  00000+0  12938-3 0  9991
2 35686  98.2057 319.4965 0062761  73.6341 287.1767 14.96235706916102
S-NET D                 
1 43186U 18014G   26166.48260500  .00004786  00000+0  24781-3 0  9991
2 43186  97.5369  71.2842 0009095  35.5584 324.6253 15.16659437458504
S-NET B                 
1 43187U 18014H   26166.49402441  .00004573  00000+0  23712-3 0  9992
2 43187  97.5376  71.2823 0009608  30.6839 329.4954 15.16629246458507
S-NET A                 
1 43188U 18014J   26166.48149198  .00004734  00000+0  24508-3 0  9992
2 43188  97.5385  71.4781 0009515  31.3841 328.7958 15.16667160458504
S-NET C                 
1 43189U 18014K   26166.29995792  .00004162  00000+0  21616-3 0  9993
2 43189  97.5402  71.3721 0010661  23.9370 336.2357 15.16618943457024
SALSAT                  
1 46495U 20068K   26166.51026536  .00006457  00000+0  22659-3 0  9991
2 46495  97.8844 169.4726 0008149 315.3702  44.6880 15.29779241315105
OOV-CUBE (TUBSAT-30)    
1 60240U 24128F   26166.52507367  .00001784  00000+0  14574-3 0  9998
2 60240  61.9945 231.3695 0044801 133.3221 227.1619 15.02768621105865
LPNTSAT-001 (IOD-1)     
1 68408U 26065A   26165.90223272  .00002562  00000+0  12699-3 0  9996
2 68408  97.4023  46.4606 0016921  18.5546 341.6301 15.18527662 11910
